{
    "links": {
        "self": "http://www.neowsapp.com/rest/v1/neo/3781962?api_key=iIulBulltgU6a56xZRHN4H3l9WmuAYTsLGpBGhQ2"
    },
    "id": "3781962",
    "neo_reference_id": "3781962",
    "name": "(2017 SF19)",
    "designation": "2017 SF19",
    "nasa_jpl_url": "http://ssd.jpl.nasa.gov/sbdb.cgi?sstr=3781962",
    "absolute_magnitude_h": 20.2,
    "estimated_diameter": {
        "kilometers": {
            "estimated_diameter_min": 0.2424124811,
            "estimated_diameter_max": 0.5420507863
        },
        "meters": {
            "estimated_diameter_min": 242.4124811008,
            "estimated_diameter_max": 542.0507863358
        },
        "miles": {
            "estimated_diameter_min": 0.1506280858,
            "estimated_diameter_max": 0.3368146392
        },
        "feet": {
            "estimated_diameter_min": 795.3165644948,
            "estimated_diameter_max": 1778.3819018419
        }
    },
    "is_potentially_hazardous_asteroid": false,
    "close_approach_data": [
        {
            "close_approach_date": "2017-08-19",
            "close_approach_date_full": "2017-Aug-19 19:00",
            "epoch_date_close_approach": 1503169200000,
            "relative_velocity": {
                "kilometers_per_second": "23.5806516709",
                "kilometers_per_hour": "84890.346015253",
                "miles_per_hour": "52747.5597226443"
            },
            "miss_distance": {
                "astronomical": "0.3190647919",
                "lunar": "124.1162040491",
                "kilometers": "47731413.260233253",
                "miles": "29658924.8972867714"
            },
            "orbiting_body": "Earth"
        }
    ],
    "orbital_data": {
        "orbit_id": "2",
        "orbit_determination_date": "2018-02-10 07:09:13",
        "first_observation_date": "2017-09-02",
        "last_observation_date": "2017-09-26",
        "data_arc_in_days": 24,
        "observations_used": 17,
        "orbit_uncertainty": "7",
        "minimum_orbit_intersection": ".0941471",
        "jupiter_tisserand_invariant": "3.018",
        "epoch_osculation": "2459000.5",
        "eccentricity": ".6709832600984434",
        "semi_major_axis": "2.284613248751613",
        "inclination": "41.09883391818079",
        "ascending_node_longitude": "163.6747799051997",
        "orbital_period": "1261.297292159182",
        "perihelion_distance": ".7516760030401597",
        "perihelion_argument": "79.62978172221513",
        "aphelion_distance": "3.817550494463067",
        "perihelion_time": "2459180.205631406506",
        "mean_anomaly": "308.7083436169168",
        "mean_motion": ".285420417722237",
        "equinox": "J2000",
        "orbit_class": {
            "orbit_class_type": "APO",
            "orbit_class_description": "Near-Earth asteroid orbits which cross the Earth’s orbit similar to that of 1862 Apollo",
            "orbit_class_range": "a (semi-major axis) > 1.0 AU; q (perihelion) < 1.017 AU"
        }
    },
    "is_sentry_object": false
}